[{"OBJECT_NAME":"STARLINK-31824","OBJECT_ID":"2024-093Y","EPOCH":"2026-03-09T10:26:13.166304","MEAN_MOTION":15.27575791,"ECCENTRICITY":0.00023959,"INCLINATION":43.0106,"RA_OF_ASC_NODE":210.578,"ARG_OF_PERICENTER":283.6714,"MEAN_ANOMALY":76.3871,"EPHEMERIS_TYPE":0,"CLASSIFICATION_TYPE":"U","NORAD_CAT_ID":59804,"ELEMENT_SET_NO":999,"REV_AT_EPOCH":10265,"BSTAR":-4.3774509e-5,"MEAN_MOTION_DOT":-1.467e-5,"MEAN_MOTION_DDOT":0},{"OBJECT_NAME":"TEVEL2-1","OBJECT_ID":"2025-052H","EPOCH":"2026-03-09T15:32:51.927072","MEAN_MOTION":15.30341923,"ECCENTRICITY":0.0004767,"INCLINATION":97.3991,"RA_OF_ASC_NODE":324.7682,"ARG_OF_PERICENTER":104.8919,"MEAN_ANOMALY":255.2849,"EPHEMERIS_TYPE":0,"CLASSIFICATION_TYPE":"U","NORAD_CAT_ID":63217,"ELEMENT_SET_NO":999,"REV_AT_EPOCH":5485,"BSTAR":0.000706,"MEAN_MOTION_DOT":0.00020683,"MEAN_MOTION_DDOT":0}]
